FENGYUN 1C DEB          
1 29817U 99025DK  17345.81117366  .00000101  00000-0  80184-4 0  9992
2 29817  98.7961  43.6811 0012845  65.0598  53.6939 14.11126509561507
